OBJECT_NAME,OBJECT_ID,EPOCH,MEAN_MOTION,ECCENTRICITY,INCLINATION,RA_OF_ASC_NODE,ARG_OF_PERICENTER,MEAN_ANOMALY,EPHEMERIS_TYPE,CLASSIFICATION_TYPE,NORAD_CAT_ID,ELEMENT_SET_NO,REV_AT_EPOCH,BSTAR,MEAN_MOTION_DOT,MEAN_MOTION_DDOT
FLOCK 4BE-9,2024-149AY,2026-07-19T05:27:38.623104,15.41700200,.00039547,97.3783,284.8297,160.5370,199.6029,0,U,60514,999,10725,.2650676E-3,.11105E-3,0
FLOCK 4BE-6,2024-149BA,2026-07-19T11:27:19.363680,15.40388580,.00047753,97.3778,284.3774,160.8971,199.2455,0,U,60516,999,10724,.20363483E-3,.8146E-4,0
FLOCK 4BE-14,2024-149BB,2026-07-19T04:05:19.497984,15.41933607,.00056939,97.3684,284.2356,164.5939,195.5483,0,U,60517,999,10725,.22714567E-3,.958E-4,0
FLOCK 4BE-1,2024-149BC,2026-07-19T05:12:53.440416,15.43596417,.0005359,97.3772,285.6767,163.7333,196.4088,0,U,60518,999,10731,.21798112E-3,.9717E-4,0
FLOCK 4BE-28,2024-149BD,2026-07-19T04:19:36.380352,15.46504273,.00054714,97.3736,286.4702,163.8906,196.2518,0,U,60519,999,10738,.50188209E-3,.24875E-3,0
IPERDRONE.0,2024-149BE,2026-07-19T06:08:11.162400,15.71576006,.0003975,97.3765,295.1691,159.3407,200.8018,0,U,60520,999,10794,.46631987E-3,.5996E-3,0
TRANSPORTER-11 OBJECT BF,2024-149BF,2026-07-19T04:57:56.147040,16.21439476,.00118647,97.3737,299.2628,255.4011,104.5963,0,U,60521,999,10819,.89098135E-3,.1895568E-1,.2428554E-5
CONNECTA IOT-2,2024-149BG,2026-07-19T11:34:08.453856,15.24214195,.00059846,97.3827,278.1417,196.0780,164.0268,0,U,60522,999,10681,.92959712E-4,.2195E-4,0
CONNECTA IOT-4,2024-149BJ,2026-07-19T12:12:18.167904,15.43256209,.00063425,97.3784,285.2868,161.2626,198.8857,0,U,60524,999,10731,.18794329E-3,.8271E-4,0
ORESAT0.5,2024-149BK,2026-07-19T11:42:07.464096,15.46211405,.00065083,97.3712,287.0088,151.3669,208.7939,0,U,60525,999,10746,.23904302E-3,.11665E-3,0
DEIMOS,2024-149BL,2026-07-19T11:22:01.708896,15.45288975,.00064532,97.3772,287.1171,156.4966,203.6579,0,U,60526,999,10743,.22995993E-3,.10868E-3,0
CUAVA-2,2024-149BM,2026-07-19T04:34:11.659872,15.36789983,.00073856,97.3714,281.7780,166.0202,194.1248,0,U,60527,999,10708,.19395325E-3,.6896E-4,0
ERNST,2024-149BN,2026-07-19T05:04:50.420352,15.39955808,.00066155,97.3796,284.1886,165.9570,194.1861,0,U,60528,999,10720,.17765489E-3,.6997E-4,0
TORO,2024-149BQ,2026-07-19T11:14:58.011936,14.96522486,.0001238,97.6770,274.5337,108.9882,251.1474,0,U,60530,999,10478,.74104574E-4,.785E-5,0
HYPSO-2,2024-149BR,2026-07-19T10:40:51.780000,14.98943609,.00015531,97.6835,276.2386,97.2800,262.8600,0,U,60531,999,10488,.67002974E-4,.752E-5,0
LEMU NGE,2024-149BS,2026-07-19T04:16:11.615808,14.95068802,.00005224,97.6833,274.4913,105.7384,254.3894,0,U,60532,999,10473,.66745119E-4,.675E-5,0
LEMUR-2-STELLA,2024-149BT,2026-07-19T12:09:29.719872,15.12421715,.00012556,97.6729,283.1165,123.3945,236.7406,0,U,60533,999,10538,.34991547E-3,.6013E-4,0
SATELIOT_2,2024-149BU,2026-07-19T10:58:20.691552,14.96463798,.00012751,97.6816,274.8248,76.6381,283.4983,0,U,60534,999,10479,.40350774E-4,.401E-5,0
NIGHTJAR,2024-149BV,2026-07-19T03:56:56.442624,14.99187757,.00027817,97.6846,276.4236,88.3500,271.8042,0,U,60535,999,14766,.19025956E-3,.2258E-4,0
LEMUR-2-MARHISYAM,2024-149BW,2026-07-19T11:58:50.803104,15.11824015,.00022819,97.6873,283.5902,62.7388,297.4074,0,U,60536,999,10536,.29677176E-3,.5004E-4,0
SATELIOT_4,2024-149BX,2026-07-19T04:39:28.345248,14.96762921,.00007426,97.6723,274.0719,306.5850,53.5303,0,U,60537,999,10476,.50610169E-4,.522E-5,0
PICO-02A021,2024-149BY,2026-07-19T10:43:27.928992,15.03507651,.00037968,97.6720,279.0047,262.8542,97.2252,0,U,60538,999,10458,.19005688E-3,.2531E-4,0
ICEYE-X43,2024-149BZ,2026-07-19T04:30:38.726208,14.99791881,.00063698,97.6786,276.7232,329.7207,30.3648,0,U,60539,999,10491,.50324859E-4,.563E-5,0
HAWK-10A,2024-149CA,2026-07-19T11:07:41.332512,14.96595272,.00026973,97.6881,275.8205,345.6811,14.4334,0,U,60540,999,10481,.34290608E-4,.333E-5,0
UMBRA-09,2024-149CB,2026-07-19T05:23:16.883808,15.18920728,.00020564,97.6964,287.9994,195.3476,164.7696,0,U,60541,999,10558,.40632256E-3,.8415E-4,0
QPS-SAR-8 (AMATERU-IV),2024-149CC,2026-07-19T04:32:04.983648,15.04410529,.00031604,97.6645,279.0750,29.5714,330.5690,0,U,60542,999,10508,.13584789E-3,.1836E-4,0
ARCTIC WEATHER SATELLITE,2024-149CD,2026-07-19T09:25:23.012544,14.89807452,.00025683,97.6789,269.9353,41.0870,319.0541,0,U,60543,999,10409,.44883491E-4,.377E-5,0
CAPELLA-15 (ACADIA-5),2024-149CE,2026-07-18T18:25:46.653312,14.92397955,.00030645,97.6759,271.8791,324.5067,35.5948,0,U,60544,999,10456,.1596076E-3,.1579E-4,0
HAWK-10B,2024-149CF,2026-07-19T04:42:22.947552,14.96594111,.0004988,97.6800,274.8801,0.0464,0.0758,0,U,60545,999,10477,.37076129E-4,.365E-5,0
ICEYE-X39,2024-149CG,2026-07-19T03:55:45.773472,15.00090843,.00068186,97.6797,276.7581,35.4467,324.7208,0,U,60546,999,10491,.18083331E-3,.2195E-4,0
