FLOCK 4BE-9             
1 60514U 24149AY  26200.22753036  .00011105  00000+0  26507-3 0  9994
2 60514  97.3783 284.8297 0003954 160.5370 199.6029 15.41700200107259
FLOCK 4BE-6             
1 60516U 24149BA  26200.47730745  .00008146  00000+0  20363-3 0  9990
2 60516  97.3778 284.3774 0004775 160.8971 199.2455 15.40388580107242
FLOCK 4BE-14            
1 60517U 24149BB  26200.17036456  .00009580  00000+0  22715-3 0  9992
2 60517  97.3684 284.2356 0005693 164.5939 195.5483 15.41933607107257
FLOCK 4BE-1             
1 60518U 24149BC  26200.21728519  .00009717  00000+0  21798-3 0  9998
2 60518  97.3772 285.6767 0005359 163.7333 196.4088 15.43596417107319
FLOCK 4BE-28            
1 60519U 24149BD  26200.18028218  .00024875  00000+0  50188-3 0  9991
2 60519  97.3736 286.4702 0005471 163.8906 196.2518 15.46504273107385
IPERDRONE.0             
1 60520U 24149BE  26200.25568475  .00059960  00000+0  46632-3 0  9997
2 60520  97.3765 295.1691 0003975 159.3407 200.8018 15.71576006107946
TRANSPORTER-11 OBJECT BF
1 60521U 24149BF  26200.20689985  .01895568  24286-5  89098-3 0  9997
2 60521  97.3737 299.2628 0011864 255.4011 104.5963 16.21439476108198
CONNECTA IOT-2          
1 60522U 24149BG  26200.48204229  .00002195  00000+0  92960-4 0  9992
2 60522  97.3827 278.1417 0005984 196.0780 164.0268 15.24214195106817
CONNECTA IOT-4          
1 60524U 24149BJ  26200.50854361  .00008271  00000+0  18794-3 0  9998
2 60524  97.3784 285.2868 0006342 161.2626 198.8857 15.43256209107310
ORESAT0.5               
1 60525U 24149BK  26200.48758639  .00011665  00000+0  23904-3 0  9997
2 60525  97.3712 287.0088 0006508 151.3669 208.7939 15.46211405107467
DEIMOS                  
1 60526U 24149BL  26200.47363089  .00010868  00000+0  22996-3 0  9992
2 60526  97.3772 287.1171 0006453 156.4966 203.6579 15.45288975107439
CUAVA-2                 
1 60527U 24149BM  26200.19041273  .00006896  00000+0  19395-3 0  9995
2 60527  97.3714 281.7780 0007385 166.0202 194.1248 15.36789983107080
ERNST                   
1 60528U 24149BN  26200.21169468  .00006997  00000+0  17765-3 0  9997
2 60528  97.3796 284.1886 0006615 165.9570 194.1861 15.39955808107205
TORO                    
1 60530U 24149BQ  26200.46872699  .00000785  00000+0  74105-4 0  9995
2 60530  97.6770 274.5337 0001238 108.9882 251.1474 14.96522486104784
HYPSO-2                 
1 60531U 24149BR  26200.44504375  .00000752  00000+0  67003-4 0  9990
2 60531  97.6835 276.2386 0001553  97.2800 262.8600 14.98943609104887
LEMU NGE                
1 60532U 24149BS  26200.17791222  .00000675  00000+0  66745-4 0  9996
2 60532  97.6833 274.4913 0000522 105.7384 254.3894 14.95068802104734
LEMUR-2-STELLA          
1 60533U 24149BT  26200.50659398  .00006013  00000+0  34992-3 0  9991
2 60533  97.6729 283.1165 0001255 123.3945 236.7406 15.12421715105389
SATELIOT_2              
1 60534U 24149BU  26200.45718393  .00000401  00000+0  40351-4 0  9999
2 60534  97.6816 274.8248 0001275  76.6381 283.4983 14.96463798104793
NIGHTJAR                
1 60535U 24149BV  26200.16454216  .00002258  00000+0  19026-3 0  9995
2 60535  97.6846 276.4236 0002781  88.3500 271.8042 14.99187757147669
LEMUR-2-MARHISYAM       
1 60536U 24149BW  26200.49919911  .00005004  00000+0  29677-3 0  9995
2 60536  97.6873 283.5902 0002281  62.7388 297.4074 15.11824015105364
SATELIOT_4              
1 60537U 24149BX  26200.19407807  .00000522  00000+0  50610-4 0  9991
2 60537  97.6723 274.0719 0000742 306.5850  53.5303 14.96762921104761
PICO-02A021             
1 60538U 24149BY  26200.44685103  .00002531  00000+0  19006-3 0  9992
2 60538  97.6720 279.0047 0003796 262.8542  97.2252 15.03507651104586
ICEYE-X43               
1 60539U 24149BZ  26200.18794822  .00000563  00000+0  50325-4 0  9996
2 60539  97.6786 276.7232 0006369 329.7207  30.3648 14.99791881104917
HAWK-10A                
1 60540U 24149CA  26200.46367283  .00000333  00000+0  34291-4 0  9995
2 60540  97.6881 275.8205 0002697 345.6811  14.4334 14.96595272104810
UMBRA-09                
1 60541U 24149CB  26200.22450097  .00008415  00000+0  40632-3 0  9990
2 60541  97.6964 287.9994 0002056 195.3476 164.7696 15.18920728105586
QPS-SAR-8 (AMATERU-IV)  
1 60542U 24149CC  26200.18894657  .00001836  00000+0  13585-3 0  9997
2 60542  97.6645 279.0750 0003160  29.5714 330.5690 15.04410529105085
ARCTIC WEATHER SATELLITE
1 60543U 24149CD  26200.39262746  .00000377  00000+0  44883-4 0  9994
2 60543  97.6789 269.9353 0002568  41.0870 319.0541 14.89807452104099
CAPELLA-15 (ACADIA-5)   
1 60544U 24149CE  26199.76790108  .00001579  00000+0  15961-3 0  9990
2 60544  97.6759 271.8791 0003064 324.5067  35.5948 14.92397955104563
HAWK-10B                
1 60545U 24149CF  26200.19609893  .00000365  00000+0  37076-4 0  9995
2 60545  97.6800 274.8801 0004988   0.0464   0.0758 14.96594111104775
ICEYE-X39               
1 60546U 24149CG  26200.16372423  .00002195  00000+0  18083-3 0  9998
2 60546  97.6797 276.7581 0006818  35.4467 324.7208 15.00090843104917
